[{"OBJECT_NAME":"STARLINK-1225","OBJECT_ID":"2020-012K","EPOCH":"2026-03-09T22:29:34.222560","MEAN_MOTION":15.30176175,"ECCENTRICITY":0.00010251,"INCLINATION":53.1593,"RA_OF_ASC_NODE":38.5192,"ARG_OF_PERICENTER":81.7248,"MEAN_ANOMALY":278.3869,"EPHEMERIS_TYPE":0,"CLASSIFICATION_TYPE":"U","NORAD_CAT_ID":45187,"ELEMENT_SET_NO":999,"REV_AT_EPOCH":33497,"BSTAR":0.0001649413,"MEAN_MOTION_DOT":4.526e-5,"MEAN_MOTION_DDOT":0},{"OBJECT_NAME":"OBJECT BE","OBJECT_ID":"2024-199BE","EPOCH":"2026-03-09T22:35:11.240448","MEAN_MOTION":15.34583634,"ECCENTRICITY":0.00126202,"INCLINATION":97.3163,"RA_OF_ASC_NODE":298.7137,"ARG_OF_PERICENTER":307.7021,"MEAN_ANOMALY":52.3078,"EPHEMERIS_TYPE":0,"CLASSIFICATION_TYPE":"U","NORAD_CAT_ID":61787,"ELEMENT_SET_NO":999,"REV_AT_EPOCH":12186,"BSTAR":0.00035348262,"MEAN_MOTION_DOT":0.00011799,"MEAN_MOTION_DDOT":0}]
